,Unnamed: 0,Area Code,Area_Name,Pop_1801,Pop_1811,Pop_1821,Pop_1831,Pop_1841,Pop_1851,Pop_1861,Pop_1871,Pop_1881,Pop_1891,Pop_1901,Pop_1911,Pop_1921,Pop_1931,Pop_1939,Pop_1951,Pop_1961,Pop_1971,Pop_1981,Pop_1991,Pop_2001,latitude,longitude,Country,City,helper
0,0,00AA,City of London,129000,121000,125000,123000,124000,128000,112000,75000,51000,38000,27000,20000,14000,11000,9000,5000,4767,4000,5864,4230,7181,51.5156177,-0.0919983,United Kingdom,London,City of London United Kingdom
1,1,00AB,Barking and Dagenham,3000,4000,5000,6000,7000,8000,8000,10000,13000,19000,27000,39000,44000,138000,184000,189000,177092,161000,149786,140728,163944,51.5541171,0.150504342619943,United Kingdom,London,Barking and Dagenham United Kingdom
2,2,00AC,Barnet,8000,9000,11000,13000,14000,15000,20000,29000,41000,58000,76000,118000,147000,231000,296000,320000,318373,307000,293436,284106,314565,51.6487843,-0.1729127,United Kingdom,London,Barnet United Kingdom
3,3,00AD,Bexley,5000,6000,7000,9000,11000,12000,15000,22000,29000,37000,54000,60000,76000,95000,179000,205000,209893,217000,215233,211404,218301,51.4416793,0.150488,United Kingdom,London,Bexley United Kingdom
4,4,00AE,Brent,2000,2000,3000,3000,5000,5000,6000,19000,31000,65000,120000,166000,184000,251000,310000,311000,295893,281000,253275,227903,263466,51.4423928,0.2376383,United Kingdom,London,Brent United Kingdom
5,5,00AF,Bromley,8000,9000,11000,12000,14000,16000,22000,42000,62000,83000,100000,116000,127000,165000,237000,268000,294440,305000,296539,282920,295535,51.4028046,0.0148142,United Kingdom,London,Bromley United Kingdom
6,6,00AG,Camden,100000,128000,163000,199000,229000,270000,307000,342000,357000,370000,377000,353000,341000,326000,301000,258000,245707,207000,172014,165274,198022,51.5423045,-0.1395604,United Kingdom,London,Camden United Kingdom
7,7,00AH,Croydon,8000,10000,12000,15000,20000,23000,33000,60000,85000,110000,143000,190000,213000,271000,297000,310000,327427,334000,317980,301904,330584,51.3713049,-0.101957,United Kingdom,London,Croydon United Kingdom
8,8,00AJ,Ealing,7000,8000,9000,11000,13000,14000,20000,31000,47000,63000,95000,165000,181000,226000,285000,311000,301646,301000,279846,264867,300943,51.5126553,-0.3051952,United Kingdom,London,Ealing United Kingdom
9,9,00AK,Enfield,11000,13000,16000,17000,18000,19000,23000,30000,42000,68000,105000,155000,167000,201000,272000,288000,273857,268000,258770,250750,273565,51.6520851,-0.0810175,United Kingdom,London,Enfield United Kingdom
10,10,00AL,Greenwich,35000,46000,50000,56000,70000,90000,125000,123000,139000,175000,210000,213000,237000,244000,243000,236000,229810,218000,211840,201545,214402,52.0367323,1.168934,United Kingdom,London,Greenwich United Kingdom
11,11,00AM,Hackney,50000,64000,80000,105000,128000,170000,218000,261000,329000,372000,389000,385000,379000,364000,332000,265000,257522,220000,180434,162772,202825,51.5432402,-0.0493621,United Kingdom,London,Hackney United Kingdom
12,12,00AN,Hammersmith and Fulham,10000,13000,15000,18000,23000,30000,40000,66000,115000,189000,250000,275000,288000,286000,259000,241000,222124,187000,148447,137720,165238,51.4920377,-0.2236401,United Kingdom,London,Hammersmith and Fulham United Kingdom
13,13,00AP,Haringey,6000,7000,9000,10000,13000,14000,21000,37000,73000,142000,209000,271000,285000,307000,292000,277000,259156,240000,203553,186490,216505,51.58792985,-0.10541010599099,United Kingdom,London,Haringey United Kingdom
14,14,00AQ,Harrow,4000,5000,5000,7000,7000,8000,9000,11000,13000,15000,24000,42000,49000,97000,190000,219000,209080,203000,196571,194893,206822,51.5967688,-0.33727515543507,United Kingdom,London,Harrow United Kingdom
15,15,00AR,Havering,6000,7000,8000,9000,11000,11000,12000,15000,16000,20000,26000,33000,38000,77000,139000,192000,245598,248000,240849,225144,224262,51.0358628,-2.8417544,United Kingdom,London,Havering United Kingdom
16,16,00AS,Hillingdon,9000,11000,12000,14000,17000,18000,20000,21000,23000,25000,29000,38000,48000,84000,159000,210000,228370,235000,229913,228476,243006,51.532563,-0.453256,United Kingdom,London,Hillingdon United Kingdom
17,17,00AT,Hounslow,14000,16000,19000,22000,25000,27000,32000,41000,55000,68000,85000,109000,117000,156000,196000,211000,208893,207000,200829,196602,212352,51.4686132,-0.3613471,United Kingdom,London,Hounslow United Kingdom
18,18,00AU,Islington,65000,83000,108000,137000,168000,220000,283000,337000,401000,429000,436000,415000,407000,392000,343000,271000,261232,202000,160890,154873,175789,51.5384287,-0.0999051,United Kingdom,London,Islington United Kingdom
19,19,00AW,Kensington and Chelsea,18000,25000,35000,46000,58000,88000,120000,177000,234000,243000,250000,239000,240000,240000,228000,219000,218528,188000,138837,126285,158921,51.4989948,-0.1991229,United Kingdom,London,Kensington and Chelsea United Kingdom
20,20,00AX,Kingston upon Thames,5000,5000,6000,8000,10000,12000,18000,27000,36000,45000,56000,68000,74000,93000,129000,147000,146010,141000,132957,131436,147271,51.4096275,-0.3062621,United Kingdom,London,Kingston upon Thames United Kingdom
21,21,00AY,Lambeth,33000,49000,67000,99000,129000,155000,182000,236000,293000,333000,384000,408000,419000,421000,391000,347000,341626,308000,246426,220252,266170,51.5013012,-0.117287,United Kingdom,London,Lambeth United Kingdom
22,22,00AZ,Lewisham,16000,20000,24000,26000,34000,44000,67000,101000,145000,191000,238000,270000,287000,327000,325000,303000,290582,268000,231324,215483,248917,51.4624325,-0.0101331,United Kingdom,London,Lewisham United Kingdom
23,23,00BA,Merton,5000,6000,7000,7000,8000,8000,11000,17000,28000,41000,62000,99000,114000,158000,197000,200000,189013,177000,166100,162741,187919,51.41080285,-0.188098505955727,United Kingdom,London,Merton United Kingdom
24,24,00BB,Newham,8000,10000,12000,14000,15000,22000,43000,70000,142000,240000,366000,427000,448000,440000,381000,294000,265388,237000,209494,200678,243884,51.52999955,0.0293179602938221,United Kingdom,London,Newham United Kingdom
25,25,00BC,Redbridge,4000,5000,6000,7000,7000,7000,9000,12000,18000,31000,66000,113000,124000,179000,232000,257000,250080,240000,226280,221107,238623,51.5763203,0.0454097,United Kingdom,London,Redbridge United Kingdom
26,26,00BD,Richmond upon Thames,15000,17000,20000,22000,25000,28000,34000,48000,61000,77000,95000,124000,141000,161000,178000,188000,181052,175000,159693,155698,172330,51.44035365,-0.308151177673228,United Kingdom,London,Richmond upon Thames United Kingdom
27,27,00BE,Southwark,116000,139000,175000,207000,243000,292000,346000,407000,514000,572000,596000,579000,571000,535000,456000,338000,313413,262000,211858,198916,244867,51.5029222,-0.103458,United Kingdom,London,Southwark United Kingdom
28,28,00BF,Sutton,5000,5000,6000,7000,8000,8000,11000,16000,24000,30000,38000,54000,60000,103000,167000,176000,169095,169000,169343,164868,179767,51.3575114,-0.173640122600872,United Kingdom,London,Sutton United Kingdom
29,29,00BG,Tower Hamlets,144000,180000,219000,263000,310000,377000,442000,512000,566000,581000,597000,570000,529000,489000,419000,231000,205682,166000,142841,153255,196083,51.1288633,1.2986686,United Kingdom,London,Tower Hamlets United Kingdom
30,30,00BH,Waltham Forest,8000,9000,11000,11000,12000,13000,17000,28000,54000,112000,198000,258000,267000,283000,286000,275000,248591,235000,215947,203343,218335,51.5569991,-0.0058352,United Kingdom,London,Waltham Forest United Kingdom
31,31,00BJ,Wandsworth,13000,16000,19000,23000,28000,36000,52000,99000,173000,251000,319000,369000,380000,388000,358000,331000,335451,302000,254898,239162,260379,51.4570271,-0.1932607,United Kingdom,London,Wandsworth United Kingdom
32,32,00BK,Westminster,231000,254000,298000,354000,402000,462000,512000,524000,513000,481000,460000,421000,390000,372000,347000,300000,271703,240000,191098,177743,181284,51.5013562,-0.1249302,United Kingdom,London,Westminster United Kingdom
33,33,UKI1,Inner London,939000,1109000,1349000,1624000,1904000,2308000,2745000,3244000,3906000,4432000,4898000,5002000,4978000,4898000,4441000,3680000,3492881,3031000,2497978,2343133,2766065,51.51242315,-0.110260241875002,United Kingdom,London,Inner London United Kingdom
34,34,UKI2,Outer London,162000,193000,224000,256000,302000,342000,445000,602000,817000,1142000,1609000,2160000,2408000,3213000,4176000,4513000,4504213,4422000,4215187,4050435,4405992,51.5073219,-0.1276474,United Kingdom,London,Outer London United Kingdom
35,35,H,Greater London,1097000,1303000,1573000,1878000,2207000,2651000,3188000,3841000,4713000,5572000,6510000,7162000,7387000,8110000,8615000,8197000,7997094,7452000,6713165,6393568,7172057,51.4893335,-0.144055084527687,United Kingdom,London,Greater London United Kingdom
